[{"OBJECT_NAME":"STARLINK-4176","OBJECT_ID":"2022-086AZ","EPOCH":"2026-03-09T15:04:38.710848","MEAN_MOTION":15.08841695,"ECCENTRICITY":0.0001319,"INCLINATION":53.218,"RA_OF_ASC_NODE":179.5398,"ARG_OF_PERICENTER":90.207,"MEAN_ANOMALY":269.9073,"EPHEMERIS_TYPE":0,"CLASSIFICATION_TYPE":"U","NORAD_CAT_ID":53289,"ELEMENT_SET_NO":999,"REV_AT_EPOCH":20124,"BSTAR":6.6347e-5,"MEAN_MOTION_DOT":7.68e-6,"MEAN_MOTION_DDOT":0},{"OBJECT_NAME":"SL-24 PLAT","OBJECT_ID":"2014-033AR","EPOCH":"2026-03-09T22:47:27.152448","MEAN_MOTION":15.0919716,"ECCENTRICITY":0.00052059,"INCLINATION":98.0981,"RA_OF_ASC_NODE":61.9435,"ARG_OF_PERICENTER":212.2329,"MEAN_ANOMALY":147.8581,"EPHEMERIS_TYPE":0,"CLASSIFICATION_TYPE":"U","NORAD_CAT_ID":40049,"ELEMENT_SET_NO":999,"REV_AT_EPOCH":63724,"BSTAR":0.00046923352,"MEAN_MOTION_DOT":7.393e-5,"MEAN_MOTION_DDOT":0}]
